{"type": "FeatureCollection", "features": [ {"type": "Feature", "properties": {"norad_id": 66639, "name": "STARLINK-35908", "group": "last-30-days", "lat": -18.64862277896867, "lon": 150.71927878119402, "alt_km": 421.60296543257937, "timestamp": "2025-12-17T07:00:45.612311+00:00", "meta": {"OBJECT_NAME": "STARLINK-35908", "OBJECT_ID": "2025-271Y", "EPOCH": "2025-12-16T21:49:30.476064", "MEAN_MOTION": 15.49334153, "ECCENTRICITY": 9.351e-05, "INCLINATION": 53.1593, "RA_OF_ASC_NODE": 167.2069, "ARG_OF_PERICENTER": 76.8706, "MEAN_ANOMALY": 283.2407, "EPHEMERIS_TYPE": 0, "CLASSIFICATION_TYPE": "U", "NORAD_CAT_ID": 66639, "ELEMENT_SET_NO": 999, "REV_AT_EPOCH": 485, "BSTAR": 0.0013178898, "MEAN_MOTION_DOT": 0.00073606, "MEAN_MOTION_DDOT": 0}, "tle": {"line1": "1 66639U 25271Y   25350.90938051  .00073606  00000+0  13179-2 0  9991", "line2": "2 66639  53.1593 167.2069 0000935  76.8706 283.2407 15.49334153  4851"}}, "geometry": {"type": "Point", "coordinates": [150.71927878119402, -18.64862277896867]}}, {"type": "Feature", "properties": {"norad_id": 66640, "name": "STARLINK-35921", "group": "last-30-days", "lat": -17.161989139873437, "lon": 151.98435647304794, "alt_km": 421.47153421355233, "timestamp": "2025-12-17T07:00:45.612321+00:00", "meta": {"OBJECT_NAME": "STARLINK-35921", "OBJECT_ID": "2025-271Z", "EPOCH": "2025-12-16T21:49:00.787296", "MEAN_MOTION": 15.49334098, "ECCENTRICITY": 0.0001188, "INCLINATION": 53.1594, "RA_OF_ASC_NODE": 167.2047, "ARG_OF_PERICENTER": 76.3934, "MEAN_ANOMALY": 283.7208, "EPHEMERIS_TYPE": 0, "CLASSIFICATION_TYPE": "U", "NORAD_CAT_ID": 66640, "ELEMENT_SET_NO": 999, "REV_AT_EPOCH": 485, "BSTAR": 0.001272765, "MEAN_MOTION_DOT": 0.00071047, "MEAN_MOTION_DDOT": 0}, "tle": {"line1": "1 66640U 25271Z   25350.90903689  .00071047  00000+0  12728-2 0  9998", "line2": "2 66640  53.1594 167.2047 0001188  76.3934 283.7208 15.49334098  4851"}}, "geometry": {"type": "Point", "coordinates": [151.98435647304794, -17.161989139873437]}}, {"type": "Feature", "properties": {"norad_id": 66641, "name": "STARLINK-35923", "group": "last-30-days", "lat": -11.17352131680826, "lon": 156.8380409602172, "alt_km": 421.17612948863007, "timestamp": "2025-12-17T07:00:45.612331+00:00", "meta": {"OBJECT_NAME": "STARLINK-35923", "OBJECT_ID": "2025-271AA", "EPOCH": "2025-12-16T21:47:02.081472", "MEAN_MOTION": 15.49318746, "ECCENTRICITY": 0.00012532, "INCLINATION": 53.1595, "RA_OF_ASC_NODE": 167.1936, "ARG_OF_PERICENTER": 95.7181, "MEAN_ANOMALY": 264.3971, "EPHEMERIS_TYPE": 0, "CLASSIFICATION_TYPE": "U", "NORAD_CAT_ID": 66641, "ELEMENT_SET_NO": 999, "REV_AT_EPOCH": 485, "BSTAR": 0.00063127625, "MEAN_MOTION_DOT": 0.00034829, "MEAN_MOTION_DDOT": 0}, "tle": {"line1": "1 66641U 25271AA  25350.90766298  .00034829  00000+0  63128-3 0  9990", "line2": "2 66641  53.1595 167.1936 0001253  95.7181 264.3971 15.49318746  4855"}}, "geometry": {"type": "Point", "coordinates": [156.8380409602172, -11.17352131680826]}}, {"type": "Feature", "properties": {"norad_id": 66642, "name": "STARLINK-35926", "group": "last-30-days", "lat": -12.673565178073048, "lon": 155.6525436826994, "alt_km": 421.1692587242651, "timestamp": "2025-12-17T07:00:45.612341+00:00", "meta": {"OBJECT_NAME": "STARLINK-35926", "OBJECT_ID": "2025-271AB", "EPOCH": "2025-12-16T23:20:25.124928", "MEAN_MOTION": 15.49327481, "ECCENTRICITY": 6.721e-05, "INCLINATION": 53.1591, "RA_OF_ASC_NODE": 166.888, "ARG_OF_PERICENTER": 96.8117, "MEAN_ANOMALY": 263.2969, "EPHEMERIS_TYPE": 0, "CLASSIFICATION_TYPE": "U", "NORAD_CAT_ID": 66642, "ELEMENT_SET_NO": 999, "REV_AT_EPOCH": 482, "BSTAR": 0.00094000034, "MEAN_MOTION_DOT": 0.00052215, "MEAN_MOTION_DDOT": 0}, "tle": {"line1": "1 66642U 25271AB  25350.97251302  .00052215  00000+0  94000-3 0  9995", "line2": "2 66642  53.1591 166.8880 0000672  96.8117 263.2969 15.49327481  4829"}}, "geometry": {"type": "Point", "coordinates": [155.6525436826994, -12.673565178073048]}}, {"type": "Feature", "properties": {"norad_id": 66643, "name": "STARLINK-35918", "group": "last-30-days", "lat": -15.669201957791014, "lon": 153.227790507991, "alt_km": 421.36713712209894, "timestamp": "2025-12-17T07:00:45.612350+00:00", "meta": {"OBJECT_NAME": "STARLINK-35918", "OBJECT_ID": "2025-271AC", "EPOCH": "2025-12-16T21:48:31.140864", "MEAN_MOTION": 15.49331212, "ECCENTRICITY": 0.00012661, "INCLINATION": 53.1594, "RA_OF_ASC_NODE": 167.2025, "ARG_OF_PERICENTER": 80.4253, "MEAN_ANOMALY": 279.69, "EPHEMERIS_TYPE": 0, "CLASSIFICATION_TYPE": "U", "NORAD_CAT_ID": 66643, "ELEMENT_SET_NO": 999, "REV_AT_EPOCH": 485, "BSTAR": 0.0013639196, "MEAN_MOTION_DOT": 0.00076211, "MEAN_MOTION_DDOT": 0}, "tle": {"line1": "1 66643U 25271AC  25350.90869376  .00076211  00000+0  13639-2 0  9995", "line2": "2 66643  53.1594 167.2025 0001266  80.4253 279.6900 15.49331212  4855"}}, "geometry": {"type": "Point", "coordinates": [153.227790507991, -15.669201957791014]}}, {"type": "Feature", "properties": {"norad_id": 66644, "name": "STARLINK-35938", "group": "last-30-days", "lat": -14.154331260127162, "lon": 154.46504506136986, "alt_km": 421.04143269705673, "timestamp": "2025-12-17T07:00:45.612362+00:00", "meta": {"OBJECT_NAME": "STARLINK-35938", "OBJECT_ID": "2025-271AD", "EPOCH": "2025-12-16T21:48:01.380384", "MEAN_MOTION": 15.49339514, "ECCENTRICITY": 6.726e-05, "INCLINATION": 53.1592, "RA_OF_ASC_NODE": 167.2001, "ARG_OF_PERICENTER": 72.5764, "MEAN_ANOMALY": 287.5318, "EPHEMERIS_TYPE": 0, "CLASSIFICATION_TYPE": "U", "NORAD_CAT_ID": 66644, "ELEMENT_SET_NO": 999, "REV_AT_EPOCH": 485, "BSTAR": 0.0013569469, "MEAN_MOTION_DOT": 0.00075837, "MEAN_MOTION_DDOT": 0}, "tle": {"line1": "1 66644U 25271AD  25350.90834931  .00075837  00000+0  13569-2 0  9990", "line2": "2 66644  53.1592 167.2001 0000672  72.5764 287.5318 15.49339514  4851"}}, "geometry": {"type": "Point", "coordinates": [154.46504506136986, -14.154331260127162]}}, {"type": "Feature", "properties": {"norad_id": 66645, "name": "SHENZHOU-22", "group": "last-30-days", "lat": 7.090419385567344, "lon": 160.96780233921407, "alt_km": 389.0067791895517, "timestamp": "2025-12-17T07:00:45.612374+00:00", "meta": {"OBJECT_NAME": "SHENZHOU-22", "OBJECT_ID": "2025-272A", "EPOCH": "2025-12-17T00:08:35.156544", "MEAN_MOTION": 15.59356604, "ECCENTRICITY": 0.00077847, "INCLINATION": 41.4682, "RA_OF_ASC_NODE": 350.8038, "ARG_OF_PERICENTER": 67.2573, "MEAN_ANOMALY": 292.9088, "EPHEMERIS_TYPE": 0, "CLASSIFICATION_TYPE": "U", "NORAD_CAT_ID": 66645, "ELEMENT_SET_NO": 999, "REV_AT_EPOCH": 26357, "BSTAR": 0.00024375831, "MEAN_MOTION_DOT": 0.00019519, "MEAN_MOTION_DDOT": 0}, "tle": {"line1": "1 66645U 25272A   25351.00596246  .00019519  00000+0  24376-3 0  9992", "line2": "2 66645  41.4682 350.8038 0007784  67.2573 292.9088 15.59356604263572"}}, "geometry": {"type": "Point", "coordinates": [160.96780233921407, 7.090419385567344]}}, {"type": "Feature", "properties": {"norad_id": 66647, "name": "COSMOS 2597 (RODNIK-S 22)", "group": "last-30-days", "lat": -65.72495833965804, "lon": -93.3627822577437, "alt_km": 1499.7498858687768, "timestamp": "2025-12-17T07:00:45.612385+00:00", "meta": {"OBJECT_NAME": "COSMOS 2597 (RODNIK-S 22)", "OBJECT_ID": "2025-273A", "EPOCH": "2025-12-16T21:42:17.131680", "MEAN_MOTION": 12.41952004, "ECCENTRICITY": 0.00076921, "INCLINATION": 82.4987, "RA_OF_ASC_NODE": 283.8631, "ARG_OF_PERICENTER": 276.8857, "MEAN_ANOMALY": 83.1347, "EPHEMERIS_TYPE": 0, "CLASSIFICATION_TYPE": "U", "NORAD_CAT_ID": 66647, "ELEMENT_SET_NO": 999, "REV_AT_EPOCH": 265, "BSTAR": -0.00013357379, "MEAN_MOTION_DOT": -8e-08, "MEAN_MOTION_DDOT": 0}, "tle": {"line1": "1 66647U 25273A   25350.90436495 -.00000008  00000+0 -13357-3 0  9994", "line2": "2 66647  82.4987 283.8631 0007692 276.8857  83.1347 12.41952004  2654"}}, "geometry": {"type": "Point", "coordinates": [-93.3627822577437, -65.72495833965804]}}, {"type": "Feature", "properties": {"norad_id": 66648, "name": "COSMOS 2598 (RODNIK-S 23)", "group": "last-30-days", "lat": -10.08283600373754, "lon": -77.72417181876945, "alt_km": 1500.37044417191, "timestamp": "2025-12-17T07:00:45.612395+00:00", "meta": {"OBJECT_NAME": "COSMOS 2598 (RODNIK-S 23)", "OBJECT_ID": "2025-273B", "EPOCH": "2025-12-16T23:20:30.188832", "MEAN_MOTION": 12.43233394, "ECCENTRICITY": 0.00080402, "INCLINATION": 82.5025, "RA_OF_ASC_NODE": 283.8163, "ARG_OF_PERICENTER": 226.8098, "MEAN_ANOMALY": 133.2311, "EPHEMERIS_TYPE": 0, "CLASSIFICATION_TYPE": "U", "NORAD_CAT_ID": 66648, "ELEMENT_SET_NO": 999, "REV_AT_EPOCH": 266, "BSTAR": -0.00014009763, "MEAN_MOTION_DOT": -1e-07, "MEAN_MOTION_DDOT": 0}, "tle": {"line1": "1 66648U 25273B   25350.97257163 -.00000010  00000+0 -14010-3 0  9995", "line2": "2 66648  82.5025 283.8163 0008040 226.8098 133.2311 12.43233394  2664"}}, "geometry": {"type": "Point", "coordinates": [-77.72417181876945, -10.08283600373754]}}, {"type": "Feature", "properties": {"norad_id": 66649, "name": "COSMOS 2599 (RODNIK-S 24)", "group": "last-30-days", "lat": -78.62829550735893, "lon": 144.5305854998654, "alt_km": 1504.1537631964457, "timestamp": "2025-12-17T07:00:45.612408+00:00", "meta": {"OBJECT_NAME": "COSMOS 2599 (RODNIK-S 24)", "OBJECT_ID": "2025-273C", "EPOCH": "2025-12-16T21:52:10.170912", "MEAN_MOTION": 12.41150971, "ECCENTRICITY": 0.00062883, "INCLINATION": 82.5046, "RA_OF_ASC_NODE": 283.8822, "ARG_OF_PERICENTER": 268.4204, "MEAN_ANOMALY": 91.6154, "EPHEMERIS_TYPE": 0, "CLASSIFICATION_TYPE": "U", "NORAD_CAT_ID": 66649, "ELEMENT_SET_NO": 999, "REV_AT_EPOCH": 265, "BSTAR": -0.00011780656, "MEAN_MOTION_DOT": -6e-08, "MEAN_MOTION_DDOT": 0}, "tle": {"line1": "1 66649U 25273C   25350.91122883 -.00000006  00000+0 -11781-3 0  9997", "line2": "2 66649  82.5046 283.8822 0006288 268.4204  91.6154 12.41150971  2651"}}, "geometry": {"type": "Point", "coordinates": [144.5305854998654, -78.62829550735893]}}]}